FENGYUN 1C DEB          
1 31417U 99025BTD 17343.62283317  .00001684  00000-0  42538-3 0  9995
2 31417  99.0574 220.7617 0046074 261.8340  97.7626 14.51887333556031
